BEIDOU 3 (C01)          
1 36287U 10001A   22274.68799419 -.00000282  00000+0  00000+0 0  9999
2 36287   1.6946  47.7064 0000733   7.0168 343.8035  1.00270345 46577
BEIDOU 5 (C06)          
1 36828U 10036A   22274.66336904 -.00000131  00000+0  00000+0 0  9995
2 36828  54.1979 175.2591 0030227 187.2222 354.5564  1.00268105 44645
BEIDOU 6 (C04)          
1 37210U 10057A   22274.63874373 -.00000115  00000+0  00000+0 0  9990
2 37210   0.7465  38.8717 0007142 149.3981 211.9774  1.00270007 43702
BEIDOU 7 (C07)          
1 37256U 10068A   22274.22460973 -.00000176  00000+0  00000+0 0  9991
2 37256  50.0235 288.3790 0023989 205.1283  65.4909  1.00273769 43206
BEIDOU 8 (C08)          
1 37384U 11013A   22274.66004773 -.00000168  00000+0  00000+0 0  9995
2 37384  60.4480  53.2104 0024432 178.4239 124.7273  1.00279582 42087
BEIDOU 9 (C09)          
1 37763U 11038A   22274.65966374 -.00000078  00000+0  00000+0 0  9996
2 37763  54.4793 177.7624 0098965 227.7630 296.1603  1.00259294 41068
BEIDOU 10 (C10)         
1 37948U 11073A   22274.49682134 -.00000128  00000+0  00000+0 0  9997
2 37948  50.1423 288.0222 0086760 219.8991 137.1032  1.00270121 39810
BEIDOU 11 (C05)         
1 38091U 12008A   22274.64867487  .00000055  00000+0  00000+0 0  9997
2 38091   1.7980  69.8616 0010076 340.2121 252.5126  1.00270413 38890
BEIDOU 12 (C11)         
1 38250U 12018A   22273.45999757 -.00000078  00000+0  00000+0 0  9995
2 38250  56.6611 350.0933 0023458 250.4616 162.4864  1.86234423 71040
BEIDOU 13 (C12)         
1 38251U 12018B   22274.38772699 -.00000081  00000+0  00000+0 0  9997
2 38251  56.5767 349.3790 0014257 250.2577 108.8462  1.86234201 71058
BEIDOU 15 (C14)         
1 38775U 12050B   22274.36405230  .00000039  00000+0  00000+0 0  9998
2 38775  55.4611 108.1205 0011820 333.8852 205.2165  1.86231475 68434
BEIDOU 16 (C02)         
1 38953U 12059A   22274.67016041 -.00000178  00000+0  00000+0 0  9992
2 38953   1.1814  81.2334 0023893 295.6963 318.8586  1.00270084 36461
BEIDOU 17 (C31)         
1 40549U 15019A   22274.56832564 -.00000159  00000+0  00000+0 0  9998
2 40549  51.7025 311.5227 0038587 198.3131 160.9133  1.00274449 27498
BEIDOU 18 (C57)         
1 40748U 15037A   22274.53880248 -.00000082  00000+0  00000+0 0  9993
2 40748  55.8262 348.1767 0000945  22.3740 347.3308  1.86233577 48894
BEIDOU 19 (C58)         
1 40749U 15037B   22274.34148083 -.00000081  00000+0  00000+0 0  9996
2 40749  55.8297 348.1730 0003260 295.7321  75.8586  1.86233106 48885
BEIDOU 20 (C18)         
1 40938U 15053A   22274.53501660 -.00000108  00000+0  00000+0 0  9999
2 40938  51.3400 274.6505 0045859 200.5388 184.0131  1.00268182 25772
BEIDOU IGSO-6 (C13)     
1 41434U 16021A   22274.35280347 -.00000136  00000+0  00000+0 0  9994
2 41434  58.2570  51.7399 0045784 215.1937 324.6189  1.00262732 23893
BEIDOU-2 G7 (C03)       
1 41586U 16037A   22274.58896757 -.00000356  00000+0  00000+0 0  9996
2 41586   1.6064  68.1440 0008139 355.2460 269.5198  1.00273034 23209
BEIDOU-3 M1 (C19)       
1 43001U 17069A   22274.14354789  .00000039  00000+0  00000+0 0  9999
2 43001  55.6160 108.1422 0007782 296.3374 251.2890  1.86231765 33360
BEIDOU-3 M2 (C20)       
1 43002U 17069B   22274.09569449  .00000039  00000+0  00000+0 0  9995
2 43002  55.6141 108.1798 0006282 327.2656 231.1470  1.86231355 33352
BEIDOU-3 M3 (C27)       
1 43107U 18003A   22274.60977920 -.00000083  00000+0  00000+0 0  9994
2 43107  55.2779 349.0444 0003811  71.0158 278.3554  1.86232590 32123
BEIDOU-3 M4 (C28)       
1 43108U 18003B   22274.51875641 -.00000083  00000+0  00000+0 0  9992
2 43108  55.2715 349.0360 0003635 237.6429  93.9931  1.86231013 32125
BEIDOU-3 M5 (C21)       
1 43207U 18018A   22273.93160089  .00000039  00000+0  00000+0 0  9996
2 43207  55.5735 108.2597 0004586   6.4226 353.6505  1.86231706 31503
BEIDOU-3 M6 (C22)       
1 43208U 18018B   22273.99828930  .00000039  00000+0  00000+0 0  9999
2 43208  55.5728 108.2623 0005561 311.2799  48.7401  1.86231655 31502
BEIDOU-3 M7 (C29)       
1 43245U 18029A   22274.23987862 -.00000080  00000+0  00000+0 0  9997
2 43245  55.1878 346.8182 0001065 201.1733 170.7086  1.86232797 30664
BEIDOU-3 M8 (C30)       
1 43246U 18029B   22274.15257819 -.00000080  00000+0  10000-3 0  9996
2 43246  55.1843 346.8507 0002831 355.3973   4.5749  1.86232995 30646
BEIDOU IGSO-7 (C16)     
1 43539U 18057A   22274.66632269 -.00000138  00000+0  00000+0 0  9993
2 43539  55.0915 174.7926 0052138 227.7784 322.1504  1.00278280 15576
BEIDOU-3 M9 (C23)       
1 43581U 18062A   22274.36924542  .00000041  00000+0  00000+0 0  9993
2 43581  54.2507 228.4598 0005513 280.0073  76.5213  1.86232021 28399
BEIDOU-3 M10 (C24)      
1 43582U 18062B   22274.49902961  .00000040  00000+0  00000+0 0  9998
2 43582  54.2507 228.4441 0005297 345.7380 189.7167  1.86232474 28405
BEIDOU-3 M11 (C25)      
1 43602U 18067A   22274.40779593  .00000040  00000+0  00000+0 0  9990
2 43602  54.3339 227.0719 0007068   3.1947 152.2512  1.86231589 27894
BEIDOU-3 M12 (C26)      
1 43603U 18067B   22273.51307541  .00000044  00000+0  00000+0 0  9996
2 43603  54.3308 227.0690 0004356 347.1965 198.7348  1.86231569 27897
BEIDOU-3 M13 (C32)      
1 43622U 18072A   22273.74309051  .00000039  00000+0  00000+0 0  9990
2 43622  55.5401 107.8178 0004499 291.0080  78.1540  1.86231795 27418
BEIDOU-3 M14 (C33)      
1 43623U 18072B   22274.12961863  .00000039  00000+0  00000+0 0  9999
2 43623  55.5418 107.7966 0002969 339.5150  19.0373  1.86231835 27410
BEIDOU-3 M15 (C34)      
1 43647U 18078A   22274.28666887 -.00000081  00000+0  10000-3 0  9999
2 43647  55.0832 346.9659 0005043   4.4534 355.0650  1.86232966 26929
BEIDOU-3 M16 (C35)      
1 43648U 18078B   22274.62298142 -.00000082  00000+0  00000+0 0  9999
2 43648  55.0785 346.9604 0002977  18.0758 114.5021  1.86232337 26954
BEIDOU-3 G1 (C59)       
1 43683U 18085A   22274.56290931 -.00000281  00000+0  00000+0 0  9998
2 43683   1.0110 149.9755 0004351  46.9627 156.0219  1.00267663 14477
BEIDOU-3 M17 (C36)      
1 43706U 18093A   22274.03882124  .00000043  00000+0  00000+0 0  9991
2 43706  54.3326 228.3643 0010428 279.5623  80.3034  1.86231742 26305
BEIDOU-3 M18 (C37)      
1 43707U 18093B   22274.06800277  .00000043  00000+0  00000+0 0  9994
2 43707  54.3336 228.3539 0009230 299.7649 170.9855  1.86232314 26293
BEIDOU-3 IGSO-1 (C38)   
1 44204U 19023A   22274.64294010 -.00000201  00000+0  00000+0 0  9994
2 44204  56.7172  51.8346 0023720 188.7381 121.0019  1.00277861 12774
BEIDOU-2 G8             
1 44231U 19027A   22274.62033331 -.00000249  00000+0  00000+0 0  9995
2 44231   1.1106  78.9931 0006120 116.8219 182.4016  1.00271191 12488
BEIDOU-3 IGSO-2 (C39)   
1 44337U 19035A   22274.66373840 -.00000138  00000+0  00000+0 0  9994
2 44337  55.1273 170.7802 0025573 191.3956   6.9260  1.00272025 12114
BEIDOU-3 M23 (C45)      
1 44542U 19061A   22273.97509981  .00000044  00000+0  00000+0 0  9996
2 44542  54.5592 228.5291 0008896 334.3791  25.5600  1.86231416 20553
BEIDOU-3 M24 (C46)      
1 44543U 19061B   22274.36532428  .00000042  00000+0  00000+0 0  9991
2 44543  54.5584 228.4849 0006434 315.9464 217.0675  1.86231898 20555
BEIDOU-3 IGSO-3         
1 44709U 19073A   22274.62897245 -.00000155  00000+0  10000-3 0  9999
2 44709  57.0925 295.2813 0027501 182.5206 239.1216  1.00276907 10864
BEIDOU-3 M21            
1 44793U 19078A   22274.36718207 -.00000081  00000+0  10000-3 0  9996
2 44793  54.9314 346.9714 0005040  13.9374 353.2889  1.86232400 19425
BEIDOU-3 M22            
1 44794U 19078B   22274.50005845 -.00000081  00000+0  00000+0 0  9995
2 44794  54.9053 346.9570 0002858   4.2789   3.8814  1.86232881 19422
BEIDOU-3 M19            
1 44864U 19090A   22273.89688501  .00000039  00000+0  00000+0 0  9996
2 44864  55.4757 108.0174 0015002 269.9990 248.1450  1.86232015 18993
BEIDOU-3 M20            
1 44865U 19090B   22274.33799654  .00000039  00000+0  00000+0 0  9999
2 44865  55.4772 108.0348 0013119 285.7653 257.9718  1.86231949 18971
BEIDOU-3 G2             
1 45344U 20017A   22274.49342053 -.00000143  00000+0  00000+0 0  9994
2 45344   2.0151 357.4450 0004044 157.1271 113.3234  1.00271022  9679
BEIDOU-3 G3             
1 45807U 20040A   22274.58466753 -.00000357  00000+0  00000+0 0  9995
2 45807   1.2111 306.8563 0008329 335.7697  48.7327  1.00272957  8490
